IRIDIUM 921 [-]         
1 24873U 97034E   24100.11156851  .00019824  00000+0  59070-3 0  9999
2 24873  86.3818 322.2052 0005502 130.4737 229.6995 15.34544532464577
IRIDIUM 26 [-]          
1 24903U 97043A   24100.77808171  .00000470  00000+0  15417-3 0  9998
2 24903  86.3903 292.4812 0002321  90.4220 269.7243 14.36270635394514
IRIDIUM 22 [-]          
1 24907U 97043E   24100.78088981  .00000433  00000+0  14480-3 0  9990
2 24907  86.3909 295.6652 0002079  90.9939 269.1495 14.35163620394598
DUMMY MASS 1 [-]        
1 24925U 97048A   24100.91963489  .00000468  00000+0  50234-4 0  9991
2 24925  86.3361 335.5478 0004801 228.7187 131.3625 14.86127449440762
DUMMY MASS 2 [-]        
1 24926U 97048B   24100.94517398  .00000464  00000+0  50086-4 0  9990
2 24926  86.3365 337.0665 0005345 245.6872 114.3794 14.85886531440553
IRIDIUM 29 [-]          
1 24944U 97051A   24100.87493093  .00000391  00000+0  12897-3 0  9997
2 24944  86.3955 325.5626 0001937  92.1248 268.0170 14.35622886391086
IRIDIUM 33 [-]          
1 24946U 97051C   24100.90791415  .00000273  00000+0  90295-4 0  9990
2 24946  86.3868 324.8052 0009727  60.0700 300.1460 14.34304655390627
IRIDIUM 28 [-]          
1 24948U 97051E   24100.85438239  .00000411  00000+0  13330-3 0  9996
2 24948  86.3955 323.3350 0002551  84.5789 275.5699 14.36571974391618
